NORAD_CAT_ID,OBJECT_NAME,OBJECT_TYPE,EPOCH,MEAN_MOTION,ECCENTRICITY,INCLINATION,RA_OF_ASC_NODE,ARG_OF_PERICENTER,MEAN_ANOMALY,BSTAR,MEAN_MOTION_DOT,MEAN_MOTION_DDOT,TLE_LINE0,TLE_LINE1,TLE_LINE2,SEMIMAJOR_AXIS,PERIOD,APOGEE,PERIGEE,DECAYED
53856.0,STARLINK-4795,PAYLOAD,2022-12-07 17:03:38,15.73250779,0.0003847,53.2134,224.5008,17.6098,342.5054,0.00025972,0.00036075,0.0,0 STARLINK-4795,1 53856U 22114AQ  22341.71086766  .00036075  00000-0  25972-3 0  9999,2 53856  53.2134 224.5008 0003847  17.6098 342.5054 15.73250779 13666,6727.75,91.53,352.204,347.027,0.0
53856.0,STARLINK-4795,PAYLOAD,2022-12-07 23:09:33,15.73261675,0.0003343,53.2135,223.2457,13.8197,346.2914,0.00027035,0.00037599,0.0,0 STARLINK-4795,1 53856U 22114AQ  22341.96497156  .00037599  00000-0  27035-3 0  9999,2 53856  53.2135 223.2457 0003343  13.8197 346.2914 15.73261675 13708,6727.719,91.53,351.833,347.335,0.0
53856.0,STARLINK-4795,PAYLOAD,2022-12-08 22:01:43,15.73644347,0.000479,53.2133,218.5324,351.3946,8.6992,0.0029898,0.00450851,0.0,0 STARLINK-4795,1 53856U 22114AQ  22342.91786132  .00450851  00000-0  29898-2 0  9998,2 53856  53.2133 218.5324 0004790 351.3946   8.6992 15.73644347 13307,6726.629,91.507,351.716,345.272,0.0
53856.0,STARLINK-4795,PAYLOAD,2022-12-09 07:10:20,15.73859715,0.0004352,53.213,216.6433,327.2747,32.8003,0.0013652,0.00201326,0.0,0 STARLINK-4795,1 53856U 22114AQ  22343.29884325  .00201326  00000-0  13652-2 0  9995,2 53856  53.2130 216.6433 0004352 327.2747  32.8003 15.73859715 13364,6726.015,91.495,350.807,344.95300000000015,0.0
53856.0,STARLINK-4795,PAYLOAD,2022-12-09 19:22:29,15.73103523,0.0003474,53.213,214.1296,6.3961,353.7102,-0.00030186,-0.00042614,0.0,0 STARLINK-4795,1 53856U 22114AQ  22343.80728647 -.00042614  00000-0 -30186-3 0  9993,2 53856  53.2130 214.1296 0003474   6.3961 353.7102 15.73103523 13444,6728.17,91.539,352.37300000000016,347.6980000000001,0.0
53856.0,STARLINK-4795,PAYLOAD,2022-12-09 23:56:56,15.73121375,0.0003114,53.2131,213.1877,8.5507,351.5566,2.7751e-05,3.262e-05,0.0,0 STARLINK-4795,1 53856U 22114AQ  22343.99788031  .00003262  00000-0  27751-4 0  9995,2 53856  53.2131 213.1877 0003114   8.5507 351.5566 15.73121375 13478,6728.119000000002,91.538,352.079,347.889,0.0
53856.0,STARLINK-4795,PAYLOAD,2022-12-10 19:46:07,15.73239016,0.0007436,53.2135,209.0962,274.5446,85.4724,7.153300000000001e-05,9.453e-05,0.0,0 STARLINK-4795,1 53856U 22114AQ  22344.82369909  .00009453  00000-0  71533-4 0  9992,2 53856  53.2135 209.0962 0007436 274.5446  85.4724 15.73239016 14156,6727.784000000002,91.531,354.652,344.646,0.0
53856.0,STARLINK-4795,PAYLOAD,2022-12-10 21:17:45,15.72291486,0.0003771,53.2138,208.783,316.637,43.4353,-0.0064366,-0.00792595,0.0,0 STARLINK-4795,1 53856U 22114AQ  22344.88733211 -.00792595  00000-0 -64366-2 0  9991,2 53856  53.2138 208.7830 0003771 316.6370  43.4353 15.72291486 13611,6730.486999999999,91.586,354.89,349.814,0.0
53856.0,STARLINK-4795,PAYLOAD,2022-12-11 04:55:39,15.71400944,0.0004969,53.2139,207.21400000000003,289.5786,70.4697,-0.0067268,-0.00797499,0.0,0 STARLINK-4795,1 53856U 22114AQ  22345.20532045 -.00797499  00000-0 -67268-2 0  9992,2 53856  53.2139 207.2140 0004969 289.5786  70.4697 15.71400944 13665,6733.029,91.638,358.24,351.5490000000001,0.0
53856.0,STARLINK-4795,PAYLOAD,2022-12-11 20:12:38,15.70669801,0.0006600999999999,53.2162,204.0777,295.2156,64.8179,0.0019065,0.00247253,0.0,0 STARLINK-4795,1 53856U 22114AQ  22345.84211017  .00247253  00000-0  19065-2 0  9993,2 53856  53.2162 204.0777 0006601 295.2156  64.8179 15.70669801 13763,6735.119000000002,91.681,361.429,352.538,0.0
53856.0,STARLINK-4795,PAYLOAD,2022-12-12 00:47:34,15.70129752,0.0009892,53.216,203.1371,284.5635,75.4286,-0.002798,-0.00333345,0.0,0 STARLINK-4795,1 53856U 22114AQ  22346.03303301 -.00333345  00000-0 -27980-2 0  9998,2 53856  53.2160 203.1371 0009892 284.5635  75.4286 15.70129752 13795,6736.663000000001,91.712,365.192,351.86400000000015,0.0
53856.0,STARLINK-4795,PAYLOAD,2022-12-12 22:00:00,15.66591099,0.0001506,53.2175,198.8039,39.3216,268.527,-0.011806,-0.01140345,0.0,0 STARLINK-4795,1 53856U 22114AQ  22346.91667824 -.01140345  00000-0 -11806-1 0  9994,2 53856  53.2175 198.8039 0001506  39.3216 268.5270 15.66591099  1301,6746.804,91.919,369.685,367.653,0.0
53856.0,STARLINK-4795,PAYLOAD,2022-12-13 14:00:01,15.64960744,0.0001593,53.2176,195.539,39.3963,68.4494,-0.012533,-0.0113402,0.0,0 STARLINK-4795,1 53856U 22114AQ  22347.58334491 -.01134020  00000-0 -12533-1 0  9990,2 53856  53.2176 195.5390 0001593  39.3963  68.4494 15.64960744 14046,6751.489000000001,92.015,374.429,372.278,0.0
53856.0,STARLINK-4795,PAYLOAD,2022-12-13 22:00:00,15.64147855,0.000166,53.2174,193.9126,42.7755,143.5995,-0.012966,-0.01135525,0.0,0 STARLINK-4795,1 53856U 22114AQ  22347.91667824 -.01135525  00000-0 -12966-1 0  9997,2 53856  53.2174 193.9126 0001660  42.7755 143.5995 15.64147855  1301,6753.828,92.063,376.814,374.571,0.0
53856.0,STARLINK-4795,PAYLOAD,2022-12-14 02:00:01,15.63619732,9.39e-05,53.2169,193.098,89.0548,316.2434,-0.009466,-0.00812391,0.0,0 STARLINK-4795,1 53856U 22114AQ  22348.08334491 -.00812391  00000-0 -94660-2 0  9991,2 53856  53.2169 193.0980 0000939  89.0548 316.2434 15.63619732 14113,6755.348000000001,92.094,377.848,376.579,0.0
53856.0,STARLINK-4795,PAYLOAD,2022-12-14 14:00:01,15.62494696,0.000394,53.2169,190.6599,278.0258,62.4908,-0.0133979999999999,-0.01103242,0.0,0 STARLINK-4795,1 53856U 22114AQ  22348.58334491 -.01103242  00000-0 -13398-1 0  9993,2 53856  53.2169 190.6599 0003940 278.0258  62.4908 15.62494696  1307,6758.590999999999,92.16,383.11800000000005,377.793,0.0
53856.0,STARLINK-4795,PAYLOAD,2022-12-14 16:00:01,15.62308256,0.0004669,53.2173,190.2543,277.5874,171.9749,-0.0137169999999999,-0.01119962,0.0,0 STARLINK-4795,1 53856U 22114AQ  22348.66668981 -.01119962  00000-0 -13717-1 0  9997,2 53856  53.2173 190.2543 0004669 277.5874 171.9749 15.62308256 14213,6759.128000000002,92.171,384.149,377.837,0.0
53856.0,STARLINK-4795,PAYLOAD,2022-12-14 22:00:00,15.61660665,0.0001471,53.2172,189.0394,45.6932,10.4273,-0.013402,-0.01070252,0.0,0 STARLINK-4795,1 53856U 22114AQ  22348.91667824 -.01070252  00000-0 -13402-1 0  9999,2 53856  53.2172 189.0394 0001471  45.6932  10.4273 15.61660665  1308,6760.996999999999,92.21,383.856,381.867,0.0
53856.0,STARLINK-4795,PAYLOAD,2022-12-15 02:00:01,15.61300125,0.0001303,53.2172,188.2283,51.2838,222.2479,-0.014491,-0.01134344,0.0,0 STARLINK-4795,1 53856U 22114AQ  22349.08334491 -.01134344  00000-0 -14491-1 0  9991,2 53856  53.2172 188.2283 0001303  51.2838 222.2479 15.61300125 14271,6762.038000000001,92.231,384.784,383.021,0.0
53856.0,STARLINK-4795,PAYLOAD,2022-12-15 14:00:01,15.60078552,0.0001689,53.2177,185.7979,40.9876,163.3743,-0.015161,-0.01132279,0.0,0 STARLINK-4795,1 53856U 22114AQ  22349.58334491 -.01132279  00000-0 -15161-1 0  9996,2 53856  53.2177 185.7979 0001689  40.9876 163.3743 15.60078552  1308,6765.566999999999,92.303,388.575,386.289,0.0
53856.0,STARLINK-4795,PAYLOAD,2022-12-15 22:00:00,15.59265786,0.0001665999999999,53.2176,184.1833,37.4759,239.5484,-0.015678,-0.01134624,0.0,0 STARLINK-4795,1 53856U 22114AQ  22349.91667824 -.01134624  00000-0 -15678-1 0  9991,2 53856  53.2176 184.1833 0001666  37.4759 239.5484 15.59265786  1308,6767.918000000002,92.351,390.91,388.655,0.0
53856.0,STARLINK-4795,PAYLOAD,2022-12-16 04:00:00,15.58656434,0.0001932,53.2172,182.9711,29.7139,211.1668,-0.016076,-0.01136548,0.0,0 STARLINK-4795,1 53856U 22114AQ  22350.16667824 -.01136548  00000-0 -16076-1 0  9990,2 53856  53.2172 182.9711 0001932  29.7139 211.1668 15.58656434 14449,6769.682,92.387,392.855,390.239,0.0
53856.0,STARLINK-4795,PAYLOAD,2022-12-16 08:00:01,15.58257017,0.0005707,53.2172,182.164,273.6479,182.8264,-0.016406,-0.01143543,0.0,0 STARLINK-4795,1 53856U 22114AQ  22350.33334491 -.01143543  00000-0 -16406-1 0  9990,2 53856  53.2172 182.1640 0005707 273.6479 182.8264 15.58257017 14476,6770.8380000000025,92.411,396.567,388.839,0.0
53856.0,STARLINK-4795,PAYLOAD,2022-12-16 14:00:01,15.57665208,0.0006787,53.2169,180.9543,270.4602,148.9459,-0.017224,-0.01171591,0.0,0 STARLINK-4795,1 53856U 22114AQ  22350.58334491 -.01171591  00000-0 -17224-1 0  9990,2 53856  53.2169 180.9543 0006787 270.4602 148.9459 15.57665208  1303,6772.553000000001,92.446,399.015,389.822,0.0
53856.0,STARLINK-4795,PAYLOAD,2022-12-16 22:00:00,15.56837167,0.0005297,53.2175,179.3452,271.5798,217.5639,-0.017531,-0.01156458,0.0,0 STARLINK-4795,1 53856U 22114AQ  22350.91667824 -.01156458  00000-0 -17531-1 0  9992,2 53856  53.2175 179.3452 0005297 271.5798 217.5639 15.56837167  1301,6774.954000000002,92.495,400.408,393.231,0.0
53856.0,STARLINK-4795,PAYLOAD,2022-12-17 06:00:00,15.56016048,0.0001994,53.2175,177.7348,270.2379,287.6621,-0.0179,-0.0114466,0.0,0 STARLINK-4795,1 53856U 22114AQ  22351.25001157 -.01144660  00000-0 -17900-1 0  9993,2 53856  53.2175 177.7348 0001994 270.2379 287.6621 15.56016048 14612,6777.3380000000025,92.544,400.554,397.851,0.0
53856.0,STARLINK-4795,PAYLOAD,2022-12-17 14:00:01,15.55184701,0.0001355,53.2169,176.1279,52.8664,212.8792,-0.017943,-0.01115272,0.0,0 STARLINK-4795,1 53856U 22114AQ  22351.58335648 -.01115272  00000-0 -17943-1 0  9998,2 53856  53.2169 176.1279 0001355  52.8664 212.8792 15.55184701  1305,6779.753000000002,92.594,402.536,400.699,0.0
53856.0,STARLINK-4795,PAYLOAD,2022-12-17 22:00:00,15.5430608,0.0001125,53.2172,174.5252,70.7628,261.7435,-0.016906,-0.01025683,0.0,0 STARLINK-4795,1 53856U 22114AQ  22351.91667824 -.01025683  00000-0 -16906-1 0  9993,2 53856  53.2172 174.5252 0001125  70.7628 261.7435 15.54306080  1308,6782.308000000001,92.646,404.936,403.41,0.0
53856.0,STARLINK-4795,PAYLOAD,2022-12-18 08:00:01,15.5336285,0.0001243,53.2174,172.5194,69.7899,74.8041,-0.019417,-0.01127244,0.0,0 STARLINK-4795,1 53856U 22114AQ  22352.33334491 -.01127244  00000-0 -19417-1 0  9997,2 53856  53.2174 172.5194 0001243  69.7899  74.8041 15.53362850 14780,6785.053000000001,92.702,407.761,406.074,0.0
